{
  "type": "FeatureCollection",
  "features": [
    {
      "type": "Feature",
      "properties": {
        "norad_id": 40069,
        "name": "METEOR-M 2",
        "group": "weather",
        "lat": 14.460649423526927,
        "lon": -25.416185245058493,
        "alt_km": 825.1779402478596,
        "timestamp": "2025-12-25T16:53:14.296302+00:00",
        "meta_object_name": "METEOR-M 2",
        "meta_object_id": "2014-037A",
        "meta_epoch": "2025-12-25T06:40:55.056864",
        "meta_mean_motion": 14.21392493,
        "meta_eccentricity": 0.0005629,
        "meta_inclination": 98.4919,
        "meta_ra_of_asc_node": 336.3829,
        "meta_arg_of_pericenter": 170.7958,
        "meta_mean_anomaly": 189.3324,
        "meta_ephemeris_type": 0,
        "meta_classification_type": "U",
        "meta_norad_cat_id": 40069,
        "meta_element_set_no": 999,
        "meta_rev_at_epoch": 59461,
        "meta_bstar": 0.00028012947,
        "meta_mean_motion_dot": 5.7e-06,
        "meta_mean_motion_ddot": 0,
        "tle_line1": "1 40069U 14037A   25359.27841501  .00000570  00000+0  28013-3 0  9994",
        "tle_line2": "2 40069  98.4919 336.3829 0005629 170.7958 189.3324 14.21392493594617"
      },
      "geometry": {
        "type": "Point",
        "coordinates": [
          -25.416185245058493,
          14.460649423526927
        ]
      }
    },
    {
      "type": "Feature",
      "properties": {
        "norad_id": 40267,
        "name": "HIMAWARI-8",
        "group": "weather",
        "lat": -0.019457412062637337,
        "lon": 128.42902409473766,
        "alt_km": 35790.24708800375,
        "timestamp": "2025-12-25T16:53:14.296314+00:00",
        "meta_object_name": "HIMAWARI-8",
        "meta_object_id": "2014-060A",
        "meta_epoch": "2025-12-25T04:34:38.772192",
        "meta_mean_motion": 1.0027122,
        "meta_eccentricity": 9.366e-05,
        "meta_inclination": 0.043,
        "meta_ra_of_asc_node": 199.255,
        "meta_arg_of_pericenter": 105.813,
        "meta_mean_anomaly": 358.216,
        "meta_ephemeris_type": 0,
        "meta_classification_type": "U",
        "meta_norad_cat_id": 40267,
        "meta_element_set_no": 999,
        "meta_rev_at_epoch": 4101,
        "meta_bstar": 0,
        "meta_mean_motion_dot": -2.54e-06,
        "meta_mean_motion_ddot": 0,
        "tle_line1": "1 40267U 14060A   25359.19072653 -.00000254  00000+0  00000+0 0  9997",
        "tle_line2": "2 40267   0.0430 199.2550 0000936 105.8130 358.2160  1.00271220 41011"
      },
      "geometry": {
        "type": "Point",
        "coordinates": [
          128.42902409473766,
          -0.019457412062637337
        ]
      }
    },
    {
      "type": "Feature",
      "properties": {
        "norad_id": 40367,
        "name": "FENGYUN 2G",
        "group": "weather",
        "lat": 1.1032658746795256,
        "lon": 86.96691659990546,
        "alt_km": 35789.659781585025,
        "timestamp": "2025-12-25T16:53:14.296327+00:00",
        "meta_object_name": "FENGYUN 2G",
        "meta_object_id": "2014-090A",
        "meta_epoch": "2025-12-25T01:33:21.992832",
        "meta_mean_motion": 1.00282434,
        "meta_eccentricity": 0.00016701,
        "meta_inclination": 5.1966,
        "meta_ra_of_asc_node": 74.9437,
        "meta_arg_of_pericenter": 171.6176,
        "meta_mean_anomaly": 329.8444,
        "meta_ephemeris_type": 0,
        "meta_classification_type": "U",
        "meta_norad_cat_id": 40367,
        "meta_element_set_no": 999,
        "meta_rev_at_epoch": 4025,
        "meta_bstar": 0,
        "meta_mean_motion_dot": -2.82e-06,
        "meta_mean_motion_ddot": 0,
        "tle_line1": "1 40367U 14090A   25359.06483788 -.00000282  00000+0  00000+0 0  9993",
        "tle_line2": "2 40367   5.1966  74.9437 0001670 171.6176 329.8444  1.00282434 40255"
      },
      "geometry": {
        "type": "Point",
        "coordinates": [
          86.96691659990546,
          1.1032658746795256
        ]
      }
    },
    {
      "type": "Feature",
      "properties": {
        "norad_id": 40732,
        "name": "METEOSAT-11 (MSG-4)",
        "group": "weather",
        "lat": -2.681595946093169,
        "lon": -3.0309664363742606,
        "alt_km": 35789.03911972179,
        "timestamp": "2025-12-25T16:53:14.296339+00:00",
        "meta_object_name": "METEOSAT-11 (MSG-4)",
        "meta_object_id": "2015-034A",
        "meta_epoch": "2025-12-24T23:24:56.791584",
        "meta_mean_motion": 1.00271323,
        "meta_eccentricity": 7.133e-05,
        "meta_inclination": 2.7671,
        "meta_ra_of_asc_node": 71.9685,
        "meta_arg_of_pericenter": 137.0347,
        "meta_mean_anomaly": 245.1596,
        "meta_ephemeris_type": 0,
        "meta_classification_type": "U",
        "meta_norad_cat_id": 40732,
        "meta_element_set_no": 999,
        "meta_rev_at_epoch": 547,
        "meta_bstar": 0,
        "meta_mean_motion_dot": 8.1e-07,
        "meta_mean_motion_ddot": 0,
        "tle_line1": "1 40732U 15034A   25358.97565731  .00000081  00000+0  00000+0 0  9992",
        "tle_line2": "2 40732   2.7671  71.9685 0000713 137.0347 245.1596  1.00271323  5470"
      },
      "geometry": {
        "type": "Point",
        "coordinates": [
          -3.0309664363742606,
          -2.681595946093169
        ]
      }
    },
    {
      "type": "Feature",
      "properties": {
        "norad_id": 41105,
        "name": "ELEKTRO-L 2",
        "group": "weather",
        "lat": -6.188244296577731,
        "lon": -26.72297764884924,
        "alt_km": 35777.71472355938,
        "timestamp": "2025-12-25T16:53:14.296351+00:00",
        "meta_object_name": "ELEKTRO-L 2",
        "meta_object_id": "2015-074A",
        "meta_epoch": "2025-12-24T23:18:12.436992",
        "meta_mean_motion": 1.0027204,
        "meta_eccentricity": 0.000354,
        "meta_inclination": 6.2545,
        "meta_ra_of_asc_node": 72.6824,
        "meta_arg_of_pericenter": 208.1447,
        "meta_mean_anomaly": 147.994,
        "meta_ephemeris_type": 0,
        "meta_classification_type": "U",
        "meta_norad_cat_id": 41105,
        "meta_element_set_no": 999,
        "meta_rev_at_epoch": 3675,
        "meta_bstar": 0,
        "meta_mean_motion_dot": -9.8e-07,
        "meta_mean_motion_ddot": 0,
        "tle_line1": "1 41105U 15074A   25358.97097728 -.00000098  00000+0  00000+0 0  9996",
        "tle_line2": "2 41105   6.2545  72.6824 0003540 208.1447 147.9940  1.00272040 36753"
      },
      "geometry": {
        "type": "Point",
        "coordinates": [
          -26.72297764884924,
          -6.188244296577731
        ]
      }
    },
    {
      "type": "Feature",
      "properties": {
        "norad_id": 41752,
        "name": "INSAT-3DR",
        "group": "weather",
        "lat": -0.03548333308953994,
        "lon": 61.83370674545327,
        "alt_km": 35838.40954492322,
        "timestamp": "2025-12-25T16:53:14.296363+00:00",
        "meta_object_name": "INSAT-3DR",
        "meta_object_id": "2016-054A",
        "meta_epoch": "2025-12-24T15:09:51.705216",
        "meta_mean_motion": 1.00271379,
        "meta_eccentricity": 0.00142635,
        "meta_inclination": 0.1198,
        "meta_ra_of_asc_node": 86.2568,
        "meta_arg_of_pericenter": 185.6475,
        "meta_mean_anomaly": 122.9543,
        "meta_ephemeris_type": 0,
        "meta_classification_type": "U",
        "meta_norad_cat_id": 41752,
        "meta_element_set_no": 999,
        "meta_rev_at_epoch": 3406,
        "meta_bstar": 0,
        "meta_mean_motion_dot": -5.6e-07,
        "meta_mean_motion_ddot": 0,
        "tle_line1": "1 41752U 16054A   25358.63184844 -.00000056  00000+0  00000+0 0  9996",
        "tle_line2": "2 41752   0.1198  86.2568 0014263 185.6475 122.9543  1.00271379 34066"
      },
      "geometry": {
        "type": "Point",
        "coordinates": [
          61.83370674545327,
          -0.03548333308953994
        ]
      }
    },
    {
      "type": "Feature",
      "properties": {
        "norad_id": 41836,
        "name": "HIMAWARI-9",
        "group": "weather",
        "lat": 0.03786530124873943,
        "lon": 128.5507211777964,
        "alt_km": 35792.51977935081,
        "timestamp": "2025-12-25T16:53:14.296402+00:00",
        "meta_object_name": "HIMAWARI-9",
        "meta_object_id": "2016-064A",
        "meta_epoch": "2025-12-23T22:52:38.784288",
        "meta_mean_motion": 1.00271828,
        "meta_eccentricity": 0.00016373,
        "meta_inclination": 0.0175,
        "meta_ra_of_asc_node": 40.3208,
        "meta_arg_of_pericenter": 292.8784,
        "meta_mean_anomaly": 243.4785,
        "meta_ephemeris_type": 0,
        "meta_classification_type": "U",
        "meta_norad_cat_id": 41836,
        "meta_element_set_no": 999,
        "meta_rev_at_epoch": 3345,
        "meta_bstar": 0,
        "meta_mean_motion_dot": 0,
        "meta_mean_motion_ddot": 0,
        "tle_line1": "1 41836U 16064A   25357.95322667  .00000000  00000+0  00000+0 0  9999",
        "tle_line2": "2 41836   0.0175  40.3208 0001637 292.8784 243.4785  1.00271828 33458"
      },
      "geometry": {
        "type": "Point",
        "coordinates": [
          128.5507211777964,
          0.03786530124873943
        ]
      }
    }
  ]
}